{
    "CCSDS_OMM_VERS": "3.0",
    "COMMENT": "GENERATED VIA SPACE-TRACK.ORG API",
    "CREATION_DATE": "2025-05-22T14:36:32",
    "ORIGINATOR": "18 SPCS",
    "OBJECT_NAME": "BEIDOU 6",
    "OBJECT_ID": "2010-057A",
    "CENTER_NAME": "EARTH",
    "REF_FRAME": "TEME",
    "TIME_SYSTEM": "UTC",
    "MEAN_ELEMENT_THEORY": "SGP4",
    "EPOCH": "2025-05-22T13:45:38.736864",
    "MEAN_MOTION": "1.00271755",
    "ECCENTRICITY": "0.00045310",
    "INCLINATION": "2.6775",
    "RA_OF_ASC_NODE": "70.4609",
    "ARG_OF_PERICENTER": "194.7552",
    "MEAN_ANOMALY": "341.6508",
    "EPHEMERIS_TYPE": "0",
    "CLASSIFICATION_TYPE": "U",
    "NORAD_CAT_ID": "37210",
    "ELEMENT_SET_NO": "999",
    "REV_AT_EPOCH": "5337",
    "BSTAR": "0.00000000000000",
    "MEAN_MOTION_DOT": "-0.00000102",
    "MEAN_MOTION_DDOT": "0.0000000000000",
    "SEMIMAJOR_AXIS": "42164.740",
    "PERIOD": "1436.097",
    "APOAPSIS": "35805.710",
    "PERIAPSIS": "35767.501",
    "OBJECT_TYPE": "PAYLOAD",
    "RCS_SIZE": "LARGE",
    "COUNTRY_CODE": "PRC",
    "LAUNCH_DATE": "2010-10-31",
    "SITE": "XSC",
    "DECAY_DATE": null,
    "FILE": "4736030",
    "GP_ID": "288124440",
    "TLE_LINE0": "0 BEIDOU 6",
    "TLE_LINE1": "1 37210U 10057A   25142.57336501 -.00000102  00000-0  00000+0 0  9993",
    "TLE_LINE2": "2 37210   2.6775  70.4609 0004531 194.7552 341.6508  1.00271755 53377"
}